NORAD_CAT_ID,OBJECT_NAME,OBJECT_TYPE,EPOCH,MEAN_MOTION,ECCENTRICITY,INCLINATION,RA_OF_ASC_NODE,ARG_OF_PERICENTER,MEAN_ANOMALY,BSTAR,MEAN_MOTION_DOT,MEAN_MOTION_DDOT,TLE_LINE0,TLE_LINE1,TLE_LINE2,SEMIMAJOR_AXIS,PERIOD,APOGEE,PERIGEE,DECAYED
52687.0,STARLINK-3981,PAYLOAD,2022-11-15 07:41:25,15.08837516,0.0002553,53.2184,177.68200000000004,38.089,322.0282,0.00015627,2.199e-05,0.0,0 STARLINK-3981,1 52687U 22053AH  22319.32043932  .00002199  00000-0  15627-3 0  9998,2 52687  53.2184 177.6820 0002553  38.0890 322.0282 15.08837516 28022,6917.888000000001,95.438,541.519,537.987,0.0
52687.0,STARLINK-3981,PAYLOAD,2022-11-15 18:49:06,15.08878743,0.0002748,53.2185,175.6003,41.6601,318.46,-0.00039102,-6.513e-05,0.0,0 STARLINK-3981,1 52687U 22053AH  22319.78409997 -.00006513  00000-0 -39102-3 0  9995,2 52687  53.2185 175.6003 0002748  41.6601 318.4600 15.08878743 28097,6917.762,95.435,541.528,537.726,0.0
52687.0,STARLINK-3981,PAYLOAD,2022-11-15 20:24:30,15.08839503,0.0002521,53.2184,175.3032,38.5969,321.5203,0.00028533,4.256e-05,0.0,0 STARLINK-3981,1 52687U 22053AH  22319.85035858  .00004256  00000-0  28533-3 0  9990,2 52687  53.2184 175.3032 0002521  38.5969 321.5203 15.08839503 28473,6917.882,95.438,541.491,538.003,0.0
52687.0,STARLINK-3981,PAYLOAD,2022-11-15 23:35:17,15.08845335,0.0002612,53.2176,174.7085,38.0486,322.069,0.00032317,4.86e-05,0.0,0 STARLINK-3981,1 52687U 22053AH  22319.98283834  .00004860  00000-0  32317-3 0  9999,2 52687  53.2176 174.7085 0002612  38.0486 322.0690 15.08845335 28123,6917.864000000001,95.437,541.536,537.922,0.0
52687.0,STARLINK-3981,PAYLOAD,2022-11-16 07:32:13,15.08837181,0.0002627,53.2172,173.2218,40.7438,319.3751,5.5003e-05,5.87e-06,0.0,0 STARLINK-3981,1 52687U 22053AH  22320.31404234  .00000587  00000-0  55003-4 0  9997,2 52687  53.2172 173.2218 0002627  40.7438 319.3751 15.08837181 28176,6917.889,95.438,541.571,537.937,0.0
52687.0,STARLINK-3981,PAYLOAD,2022-11-16 20:15:18,15.08844942,0.0002634999999999,53.2173,170.8431,40.7366,319.3823,0.00015987,2.257e-05,0.0,0 STARLINK-3981,1 52687U 22053AH  22320.84396009  .00002257  00000-0  15987-3 0  9997,2 52687  53.2173 170.8431 0002635  40.7366 319.3823 15.08844942 28629,6917.865,95.437,541.553,537.9069999999998,0.0
52687.0,STARLINK-3981,PAYLOAD,2022-11-17 08:58:23,15.0884801,0.0002641,53.2172,168.465,39.4352,320.6832,0.00024899,3.677e-05,0.0,0 STARLINK-3981,1 52687U 22053AH  22321.37387854  .00003677  00000-0  24899-3 0  9993,2 52687  53.2172 168.4650 0002641  39.4352 320.6832 15.08848010 28334,6917.856,95.437,541.548,537.894,0.0
52687.0,STARLINK-3981,PAYLOAD,2022-11-17 13:44:32,15.08849791,0.0002662,53.2171,167.5727,40.1827,319.9362,0.00029153,4.356e-05,0.0,0 STARLINK-3981,1 52687U 22053AH  22321.57259773  .00004356  00000-0  29153-3 0  9996,2 52687  53.2171 167.5727 0002662  40.1827 319.9362 15.08849791 28737,6917.85,95.437,541.557,537.874,0.0
52687.0,STARLINK-3981,PAYLOAD,2022-11-17 15:19:55,15.08850654,0.0002675,53.2171,167.2754,40.2283,319.8907,0.00031548,4.738e-05,0.0,0 STARLINK-3981,1 52687U 22053AH  22321.63883740  .00004738  00000-0  31548-3 0  9995,2 52687  53.2171 167.2754 0002675  40.2283 319.8907 15.08850654 28740,6917.848000000001,95.437,541.563,537.862,0.0
52687.0,STARLINK-3981,PAYLOAD,2022-11-18 08:49:09,15.08846833,0.0002747,53.2172,164.0046,40.2965,319.8231,0.00019184,2.767e-05,0.0,0 STARLINK-3981,1 52687U 22053AH  22322.36747639  .00002767  00000-0  19184-3 0  9994,2 52687  53.2172 164.0046 0002747  40.2965 319.8231 15.08846833 28482,6917.86,95.437,541.625,537.8240000000002,0.0
52687.0,STARLINK-3981,PAYLOAD,2022-11-18 13:35:19,15.08841383,0.0002767,53.2172,163.1128,40.4419,319.6778,7.1009e-05,8.42e-06,0.0,0 STARLINK-3981,1 52687U 22053AH  22322.56619858  .00000842  00000-0  71009-4 0  9994,2 52687  53.2172 163.1128 0002767  40.4419 319.6778 15.08841383 28884,6917.876,95.437,541.655,537.827,0.0
52687.0,STARLINK-3981,PAYLOAD,2022-11-18 15:10:42,15.08838442,0.0002753,53.2172,162.8152,40.7066,319.4131,8.4928e-06,-1.53e-06,0.0,0 STARLINK-3981,1 52687U 22053AH  22322.63243953 -.00000153  00000-0  84928-5 0  9992,2 52687  53.2172 162.8152 0002753  40.7066 319.4131 15.08838442 28527,6917.885,95.438,541.655,537.846,0.0
52687.0,STARLINK-3981,PAYLOAD,2022-11-18 19:56:52,15.08841951,0.0002711,53.2174,161.9229,41.3294,318.7903,9.046e-05,1.152e-05,0.0,0 STARLINK-3981,1 52687U 22053AH  22322.83115879  .00001152  00000-0  90460-4 0  9995,2 52687  53.2174 161.9229 0002711  41.3294 318.7903 15.08841951 28920,6917.874,95.437,541.615,537.864,0.0
52687.0,STARLINK-3981,PAYLOAD,2022-11-19 08:39:57,15.08844628,0.0002692,53.2174,159.54399999999995,42.2149,317.905,9.7812e-05,1.269e-05,0.0,0 STARLINK-3981,1 52687U 22053AH  22323.36107749  .00001269  00000-0  97812-4 0  9998,2 52687  53.2174 159.5440 0002692  42.2149 317.9050 15.08844628 29003,6917.866,95.437,541.594,537.869,0.0
52687.0,STARLINK-3981,PAYLOAD,2022-11-19 19:47:38,15.08847238,0.0002672,53.2181,157.4622,43.0314,317.0886,5.427899999999999e-05,5.76e-06,0.0,0 STARLINK-3981,1 52687U 22053AH  22323.82475353  .00000576  00000-0  54279-4 0  9998,2 52687  53.2181 157.4622 0002672  43.0314 317.0886 15.08847238 29076,6917.858,95.437,541.572,537.875,0.0
52687.0,STARLINK-3981,PAYLOAD,2022-11-20 00:33:47,15.08848429,0.0002689,53.2181,156.5702,43.2193,316.901,5.3857e-05,5.69e-06,0.0,0 STARLINK-3981,1 52687U 22053AH  22324.02347175  .00000569  00000-0  53857-4 0  9994,2 52687  53.2181 156.5702 0002689  43.2193 316.9010 15.08848429 28732,6917.855,95.437,541.58,537.859,0.0
52687.0,STARLINK-3981,PAYLOAD,2022-11-20 13:16:52,15.08846396,0.0002709,53.2181,154.1912,43.4021,316.7184,0.00018315,2.628e-05,0.0,0 STARLINK-3981,1 52687U 22053AH  22324.55339018  .00002628  00000-0  18315-3 0  9996,2 52687  53.2181 154.1912 0002709  43.4021 316.7184 15.08846396 29185,6917.861,95.437,541.6,537.852,0.0
52687.0,STARLINK-3981,PAYLOAD,2022-11-20 16:27:39,15.08844089,0.0002754,53.217,153.5958,42.8928,317.2278,0.00015628,2.2e-05,0.0,0 STARLINK-3981,1 52687U 22053AH  22324.68587348  .00002200  00000-0  15628-3 0  9991,2 52687  53.2170 153.5958 0002754  42.8928 317.2278 15.08844089 28833,6917.868,95.437,541.638,537.828,0.0
52687.0,STARLINK-3981,PAYLOAD,2022-11-20 19:38:26,15.08833999,0.0002684,53.2182,153.002,44.0006,316.12,6.7736e-05,7.9e-06,0.0,0 STARLINK-3981,1 52687U 22053AH  22324.81836041  .00000790  00000-0  67736-4 0  9993,2 52687  53.2182 153.0020 0002684  44.0006 316.1200 15.08833999 29229,6917.899,95.438,541.62,537.9069999999998,0.0
52687.0,STARLINK-3981,PAYLOAD,2022-11-21 13:07:40,15.08838596,0.0002738,53.217,149.7309,44.4745,315.6467,2.3243e-06,-2.52e-06,0.0,0 STARLINK-3981,1 52687U 22053AH  22325.54699725 -.00000252  00000-0  23243-5 0  9990,2 52687  53.2170 149.7309 0002738  44.4745 315.6467 15.08838596 29331,6917.885,95.438,541.644,537.856,0.0
52687.0,STARLINK-3981,PAYLOAD,2022-11-21 19:29:13,15.08839854,0.0002746,53.2171,148.5414,45.1223,314.9992,2.3057e-05,7.8e-07,0.0,0 STARLINK-3981,1 52687U 22053AH  22325.81195687  .00000078  00000-0  23057-4 0  9995,2 52687  53.2171 148.5414 0002746  45.1223 314.9992 15.08839854 29371,6917.880999999999,95.438,541.645,537.846,0.0
52687.0,STARLINK-3981,PAYLOAD,2022-11-22 08:12:18,15.08841074,0.0002783,53.2171,146.1625,46.0207,314.1014,3.7753e-05,3.12e-06,0.0,0 STARLINK-3981,1 52687U 22053AH  22326.34187645  .00000312  00000-0  37753-4 0  9998,2 52687  53.2171 146.1625 0002783  46.0207 314.1014 15.08841074 29084,6917.877,95.437,541.6669999999998,537.817,0.0
52687.0,STARLINK-3981,PAYLOAD,2022-11-22 19:20:00,15.08841666,0.0002761,53.2172,144.0809,47.6361,312.4864,5.8416e-05,6.41e-06,0.0,0 STARLINK-3981,1 52687U 22053AH  22326.80555609  .00000641  00000-0  58416-4 0  9992,2 52687  53.2172 144.0809 0002761  47.6361 312.4864 15.08841666 29520,6917.875,95.437,541.65,537.83,0.0
52687.0,STARLINK-3981,PAYLOAD,2022-11-23 11:13:51,15.088446,0.0002801,53.2171,141.1073,47.5321,312.5908,0.00018292,2.624e-05,0.0,0 STARLINK-3981,1 52687U 22053AH  22327.46795571  .00002624  00000-0  18292-3 0  9999,2 52687  53.2171 141.1073 0002801  47.5321 312.5908 15.08844600 29251,6917.866,95.437,541.669,537.794,0.0
52687.0,STARLINK-3981,PAYLOAD,2022-11-23 20:46:10,15.08847122,0.0002825,53.2173,139.3231,48.0046,312.1186,0.00018078,2.59e-05,0.0,0 STARLINK-3981,1 52687U 22053AH  22327.86539360  .00002590  00000-0  18078-3 0  9999,2 52687  53.2173 139.3231 0002825  48.0046 312.1186 15.08847122 29687,6917.859,95.437,541.678,537.769,0.0
52687.0,STARLINK-3981,PAYLOAD,2022-11-24 09:29:15,15.08845778,0.0002826,53.2172,136.9439,49.8194,310.3046,0.00012941,1.772e-05,0.0,0 STARLINK-3981,1 52687U 22053AH  22328.39531312  .00001772  00000-0  12941-3 0  9991,2 52687  53.2172 136.9439 0002826  49.8194 310.3046 15.08845778 29762,6917.863,95.437,541.683,537.773,0.0
52687.0,STARLINK-3981,PAYLOAD,2022-11-24 17:26:11,15.08836671,0.0002765,53.2175,135.4574,49.4772,310.6461,-1.7026e-05,-5.6e-06,0.0,0 STARLINK-3981,1 52687U 22053AH  22328.72651752 -.00000560  00000-0 -17026-4 0  9995,2 52687  53.2175 135.4574 0002765  49.4772 310.6461 15.08836671 29440,6917.891,95.438,541.668,537.8430000000002,0.0
52687.0,STARLINK-3981,PAYLOAD,2022-11-25 10:55:25,15.08839556,0.000277,53.2187,132.1867,50.1552,309.9683,2.1404e-05,5.2e-07,0.0,0 STARLINK-3981,1 52687U 22053AH  22329.45515930  .00000052  00000-0  21404-4 0  9992,2 52687  53.2187 132.1867 0002770  50.1552 309.9683 15.08839556 29928,6917.882,95.438,541.663,537.83,0.0
52687.0,STARLINK-3981,PAYLOAD,2022-11-25 17:16:58,15.08842659,0.0002773,53.2187,130.9973,50.5541,309.5697,4.4e-05,4.12e-06,0.0,0 STARLINK-3981,1 52687U 22053AH  22329.72011701  .00000412  00000-0  44000-4 0  9996,2 52687  53.2187 130.9973 0002773  50.5541 309.5697 15.08842659 29960,6917.871999999999,95.437,541.656,537.819,0.0
